NORAD_CAT_ID,OBJECT_NAME,OBJECT_TYPE,EPOCH,MEAN_MOTION,ECCENTRICITY,INCLINATION,RA_OF_ASC_NODE,ARG_OF_PERICENTER,MEAN_ANOMALY,BSTAR,MEAN_MOTION_DOT,MEAN_MOTION_DDOT,TLE_LINE0,TLE_LINE1,TLE_LINE2,SEMIMAJOR_AXIS,PERIOD,APOGEE,PERIGEE,DECAYED
52376.0,STARLINK-3767,PAYLOAD,2022-08-23 14:00:01,15.08863095,0.0001942,53.2144,238.5768,47.0982,153.1065,-0.00077555,-0.00012618,0.0,0 STARLINK-3767,1 52376U 22045AX  22235.58334491 -.00012618  00000-0 -77555-3 0  9999,2 52376  53.2144 238.5768 0001942  47.0982 153.1065 15.08863095  1309,6917.81,95.436,541.018,538.331,0.0
52376.0,STARLINK-3767,PAYLOAD,2022-08-23 22:00:01,15.08852236,0.0001786,53.2146,237.0787,52.2688,159.623,-0.00057499,-9.431e-05,0.0,0 STARLINK-3767,1 52376U 22045AX  22235.91668981 -.00009431  00000-0 -57499-3 0  9994,2 52376  53.2146 237.0787 0001786  52.2688 159.6230 15.08852236  1303,6917.843000000003,95.437,540.944,538.472,0.0
52376.0,STARLINK-3767,PAYLOAD,2022-08-24 14:00:01,15.08846256,0.000194,53.2147,234.0874,45.8067,189.2125,-0.0014273,-0.00022936,0.0,0 STARLINK-3767,1 52376U 22045AX  22236.58334491 -.00022936  00000-0 -14273-2 0  9991,2 52376  53.2147 234.0874 0001940  45.8067 189.2125 15.08846256  1306,6917.861,95.437,541.068,538.384,0.0
52376.0,STARLINK-3767,PAYLOAD,2022-08-24 22:00:00,15.08819822,0.0001823,53.215,232.5894,51.7848,194.8333,0.0022018,0.00034908,0.0,0 STARLINK-3767,1 52376U 22045AX  22236.91667824  .00034908  00000-0  22018-2 0  9993,2 52376  53.2150 232.5894 0001823  51.7848 194.8333 15.08819822 20750,6917.941999999999,95.439,541.068,538.5459999999998,0.0
52376.0,STARLINK-3767,PAYLOAD,2022-08-25 14:00:01,15.08857506,0.0001988,53.215,229.5979,47.105,222.6932,-0.0018456,-0.00029556,0.0,0 STARLINK-3767,1 52376U 22045AX  22237.58334491 -.00029556  00000-0 -18456-2 0  9994,2 52376  53.2150 229.5979 0001988  47.1050 222.6932 15.08857506 20853,6917.8269999999975,95.436,541.067,538.317,0.0
52376.0,STARLINK-3767,PAYLOAD,2022-08-25 22:00:00,15.08828705,0.0001872,53.2152,228.1,53.2997,228.106,0.0022297,0.00035365,0.0,0 STARLINK-3767,1 52376U 22045AX  22237.91667824  .00035365  00000-0  22297-2 0  9991,2 52376  53.2152 228.1000 0001872  53.2997 228.1060 15.08828705  1306,6917.915,95.438,541.075,538.485,0.0
52376.0,STARLINK-3767,PAYLOAD,2022-08-26 06:00:00,15.08849102,0.0002045999999999,53.2152,226.6053,49.2701,243.7344,-0.00079135,-0.00012864,0.0,0 STARLINK-3767,1 52376U 22045AX  22238.25001157 -.00012864  00000-0 -79135-3 0  9995,2 52376  53.2152 226.6053 0002046  49.2701 243.7344 15.08849102 20953,6917.853,95.437,541.133,538.302,0.0
52376.0,STARLINK-3767,PAYLOAD,2022-08-26 14:00:01,15.08865818,0.0001999,53.215,225.1083,48.5124,256.1517,-0.002141,-0.00034226,0.0,0 STARLINK-3767,1 52376U 22045AX  22238.58335648 -.00034226  00000-0 -21410-2 0  9994,2 52376  53.2150 225.1083 0001999  48.5124 256.1517 15.08865818  1305,6917.801,95.436,541.049,538.284,0.0
52376.0,STARLINK-3767,PAYLOAD,2022-08-26 22:00:00,15.08848447,0.0001844999999999,53.2154,223.6107,54.267,261.9454,-0.0004775999999999,-7.883e-05,0.0,0 STARLINK-3767,1 52376U 22045AX  22238.91667824 -.00007883  00000-0 -47760-3 0  9991,2 52376  53.2154 223.6107 0001845  54.2670 261.9454 15.08848447  1302,6917.855,95.437,540.996,538.443,0.0
52376.0,STARLINK-3767,PAYLOAD,2022-08-27 14:00:01,15.08842069,0.0001929,53.215,220.61900000000003,48.2809,291.1089,-0.0023211,-0.00037042,0.0,0 STARLINK-3767,1 52376U 22045AX  22239.58334491 -.00037042  00000-0 -23211-2 0  9990,2 52376  53.2150 220.6190 0001929  48.2809 291.1089 15.08842069  1300,6917.874,95.437,541.0740000000002,538.405,0.0
52376.0,STARLINK-3767,PAYLOAD,2022-08-27 22:00:00,15.08800016,0.0001886999999999,53.2158,219.1235,55.4013,295.5523,0.0016797,0.00026516,0.0,0 STARLINK-3767,1 52376U 22045AX  22239.91667824  .00026516  00000-0  16797-2 0  9999,2 52376  53.2158 219.1235 0001887  55.4013 295.5523 15.08800016  1308,6918.003000000002,95.44,541.173,538.562,0.0
52376.0,STARLINK-3767,PAYLOAD,2022-08-28 14:00:01,15.08833281,0.0002041999999999,53.2149,216.1299,51.9013,322.1732,-0.0021414999999999,-0.00034203,0.0,0 STARLINK-3767,1 52376U 22045AX  22240.58334491 -.00034203  00000-0 -21415-2 0  9992,2 52376  53.2149 216.1299 0002042  51.9013 322.1732 15.08833281  1309,6917.901,95.438,541.179,538.3530000000002,0.0
52376.0,STARLINK-3767,PAYLOAD,2022-08-28 22:00:00,15.08811358,0.0001981,53.2152,214.6327,57.9357,327.7101,0.0016466999999999,0.00025996,0.0,0 STARLINK-3767,1 52376U 22045AX  22240.91667824  .00025996  00000-0  16467-2 0  9996,2 52376  53.2152 214.6327 0001981  57.9357 327.7101 15.08811358  1308,6917.968000000003,95.439,541.203,538.462,0.0
52376.0,STARLINK-3767,PAYLOAD,2022-08-29 06:00:02,15.08818536,0.0002169,53.2152,213.1381,53.1094,344.1732,4.0772e-05,3.6000000000000007e-06,0.0,0 STARLINK-3767,1 52376U 22045AX  22241.25002315  .00000360  00000-0  40772-4 0  9998,2 52376  53.2152 213.1381 0002169  53.1094 344.1732 15.08818536 21419,6917.946,95.439,541.311,538.31,0.0
52376.0,STARLINK-3767,PAYLOAD,2022-08-29 14:00:01,15.08840062,0.0002112,53.2151,211.6407,53.4109,355.375,-0.0020799,-0.00033239,0.0,0 STARLINK-3767,1 52376U 22045AX  22241.58334491 -.00033239  00000-0 -20799-2 0  9995,2 52376  53.2151 211.6407 0002112  53.4109 355.3750 15.08840062  1307,6917.88,95.438,541.206,538.284,0.0
52376.0,STARLINK-3767,PAYLOAD,2022-08-29 22:00:00,15.08826677,0.0002085,53.2154,210.1436,58.8917,1.4773,0.0014114,0.00022238,0.0,0 STARLINK-3767,1 52376U 22045AX  22241.91667824  .00022238  00000-0  14114-2 0  9990,2 52376  53.2154 210.1436 0002085  58.8917   1.4773 15.08826677  1301,6917.920999999999,95.438,541.2280000000002,538.344,0.0
52376.0,STARLINK-3767,PAYLOAD,2022-08-30 14:00:01,15.08852922,0.0002195,53.2156,207.1516,54.7678,28.7703,-0.0016979,-0.00027219,0.0,0 STARLINK-3767,1 52376U 22045AX  22242.58334491 -.00027219  00000-0 -16979-2 0  9992,2 52376  53.2156 207.1516 0002195  54.7678  28.7703 15.08852922 21612,6917.840999999999,95.437,541.224,538.187,0.0
52376.0,STARLINK-3767,PAYLOAD,2022-08-30 22:00:00,15.08844643,0.0002193,53.2158,205.6545,59.5343,35.6003,0.0010410999999999,0.00016322,0.0,0 STARLINK-3767,1 52376U 22045AX  22242.91667824  .00016322  00000-0  10411-2 0  9994,2 52376  53.2158 205.6545 0002193  59.5343  35.6003 15.08844643  1304,6917.866,95.437,541.248,538.214,0.0
52376.0,STARLINK-3767,PAYLOAD,2022-08-31 14:00:01,15.08790468,0.0002261,53.2166,202.6657,54.3894,63.9669,0.012796,0.00209187,0.0,0 STARLINK-3767,1 52376U 22045AX  22243.58334491  .00209187  00000-0  12796-1 0  9999,2 52376  53.2166 202.6657 0002261  54.3894  63.9669 15.08790468  1301,6918.031999999997,95.441,541.461,538.3330000000002,0.0
52376.0,STARLINK-3767,PAYLOAD,2022-08-31 22:00:00,15.08864116,0.0002288,53.2164,201.1654,60.5662,69.3902,0.00055625,8.582e-05,0.0,0 STARLINK-3767,1 52376U 22045AX  22243.91667824  .00008582  00000-0  55625-3 0  9991,2 52376  53.2164 201.1654 0002288  60.5662  69.3902 15.08864116  1303,6917.807,95.436,541.254,538.089,0.0
52376.0,STARLINK-3767,PAYLOAD,2022-09-01 14:00:01,15.08867696,0.0002253,53.2163,198.1731,57.2809,95.9931,-0.0023671,-0.00037793,0.0,0 STARLINK-3767,1 52376U 22045AX  22244.58335648 -.00037793  00000-0 -23671-2 0  9994,2 52376  53.2163 198.1731 0002253  57.2809  95.9931 15.08867696  1304,6917.795999999999,95.436,541.219,538.102,0.0
52376.0,STARLINK-3767,PAYLOAD,2022-09-01 22:00:00,15.08856582,0.0002238,53.2166,196.6764,60.6651,104.151,0.00024482,3.612e-05,0.0,0 STARLINK-3767,1 52376U 22045AX  22244.91667824  .00003612  00000-0  24482-3 0  9998,2 52376  53.2166 196.6764 0002238  60.6651 104.1510 15.08856582  1300,6917.83,95.437,541.243,538.146,0.0
52376.0,STARLINK-3767,PAYLOAD,2022-09-02 06:00:00,15.08846319,0.0002355,53.2164,195.1817,55.0933,121.3426,0.00092835,0.0001452,0.0,0 STARLINK-3767,1 52376U 22045AX  22245.25001157  .00014520  00000-0  92835-3 0  9994,2 52376  53.2164 195.1817 0002355  55.0933 121.3426 15.08846319 22017,6917.861,95.437,541.355,538.097,0.0
52376.0,STARLINK-3767,PAYLOAD,2022-09-02 14:00:01,15.08849937,0.0002164,53.2163,193.6839,57.4086,130.636,-0.0020954999999999,-0.00033494,0.0,0 STARLINK-3767,1 52376U 22045AX  22245.58334491 -.00033494  00000-0 -20955-2 0  9996,2 52376  53.2163 193.6839 0002164  57.4086 130.6360 15.08849937  1304,6917.85,95.437,541.212,538.2180000000002,0.0
52376.0,STARLINK-3767,PAYLOAD,2022-09-02 22:00:01,15.08845692,0.000215,53.2165,192.1874,60.9447,138.7505,-0.00016934,-2.983e-05,0.0,0 STARLINK-3767,1 52376U 22045AX  22245.91668981 -.00002983  00000-0 -16934-3 0  9999,2 52376  53.2165 192.1874 0002150  60.9447 138.7505 15.08845692  1308,6917.863,95.437,541.215,538.241,0.0
52376.0,STARLINK-3767,PAYLOAD,2022-09-03 00:00:00,15.08852944,0.0002174,53.2163,191.8139,59.0387,233.491,-0.0013595,-0.00021868,0.0,0 STARLINK-3767,1 52376U 22045AX  22246.00001157 -.00021868  00000-0 -13595-2 0  9998,2 52376  53.2163 191.8139 0002174  59.0387 233.4910 15.08852944 22128,6917.840999999999,95.437,541.21,538.202,0.0
52376.0,STARLINK-3767,PAYLOAD,2022-09-03 14:00:01,15.08855743,0.0002121,53.2159,189.1947,59.5974,163.2341,-0.00074165,-0.00012078,0.0,0 STARLINK-3767,1 52376U 22045AX  22246.58334491 -.00012078  00000-0 -74165-3 0  9995,2 52376  53.2159 189.1947 0002121  59.5974 163.2341 15.08855743 22217,6917.831999999999,95.437,541.165,538.23,0.0
52376.0,STARLINK-3767,PAYLOAD,2022-09-03 22:00:00,15.08864192,0.000208,53.2159,187.6986,62.2509,172.1879,-0.0023476,-0.00037482,0.0,0 STARLINK-3767,1 52376U 22045AX  22246.91667824 -.00037482  00000-0 -23476-2 0  9995,2 52376  53.2159 187.6986 0002080  62.2509 172.1879 15.08864192  1302,6917.806,95.436,541.11,538.2330000000002,0.0
52376.0,STARLINK-3767,PAYLOAD,2022-09-04 14:00:01,15.08852963,0.0001978,53.2154,184.7055,60.0617,197.6518,-0.0021625,-0.00034553,0.0,0 STARLINK-3767,1 52376U 22045AX  22247.58335648 -.00034553  00000-0 -21625-2 0  9995,2 52376  53.2154 184.7055 0001978  60.0617 197.6518 15.08852963 22367,6917.840999999999,95.437,541.0740000000002,538.337,0.0
